STARLINK-31993          
1 59961U 24107S   26068.28098294  .00000279  00000+0  21540-4 0  9991
2 59961  53.1610  67.4421 0001212  86.4352 273.6787 15.30197661 99676
NUSAT-48 (HENRIETTA LE*)
1 60498U 24149AG  26068.80506098  .00012988  00000+0  45212-3 0  9999
2 60498  97.3923 150.8264 0002754 263.3026  96.7901 15.29812597 86946
